[{"OBJECT_NAME":"STARLINK-36040","OBJECT_ID":"2025-270AC","EPOCH":"2026-03-09T23:06:36.441792","MEAN_MOTION":15.27622482,"ECCENTRICITY":0.00012527,"INCLINATION":43.0025,"RA_OF_ASC_NODE":54.977,"ARG_OF_PERICENTER":213.581,"MEAN_ANOMALY":146.4963,"EPHEMERIS_TYPE":0,"CLASSIFICATION_TYPE":"U","NORAD_CAT_ID":66614,"ELEMENT_SET_NO":999,"REV_AT_EPOCH":1758,"BSTAR":0.0012926562,"MEAN_MOTION_DOT":0.00035527,"MEAN_MOTION_DDOT":0},{"OBJECT_NAME":"ELECTRON KICK STAGE R\/B","OBJECT_ID":"2024-114G","EPOCH":"2026-03-09T16:42:35.427168","MEAN_MOTION":15.12630878,"ECCENTRICITY":0.00674954,"INCLINATION":97.9507,"RA_OF_ASC_NODE":118.387,"ARG_OF_PERICENTER":79.3604,"MEAN_ANOMALY":281.5218,"EPHEMERIS_TYPE":0,"CLASSIFICATION_TYPE":"U","NORAD_CAT_ID":60085,"ELEMENT_SET_NO":999,"REV_AT_EPOCH":9434,"BSTAR":0.00053349816,"MEAN_MOTION_DOT":9.787e-5,"MEAN_MOTION_DDOT":0}]
